[{"OBJECT_NAME":"STARLINK-31163","OBJECT_ID":"2024-012W","EPOCH":"2026-03-09T07:38:30.535008","MEAN_MOTION":15.27571353,"ECCENTRICITY":0.00024937,"INCLINATION":43.0076,"RA_OF_ASC_NODE":166.9672,"ARG_OF_PERICENTER":302.1524,"MEAN_ANOMALY":57.9085,"EPHEMERIS_TYPE":0,"CLASSIFICATION_TYPE":"U","NORAD_CAT_ID":58807,"ELEMENT_SET_NO":999,"REV_AT_EPOCH":12118,"BSTAR":5.3004281e-5,"MEAN_MOTION_DOT":1.196e-5,"MEAN_MOTION_DDOT":0},{"OBJECT_NAME":"USA 55","OBJECT_ID":"1990-028B","EPOCH":"2026-03-09T23:32:27.967200","MEAN_MOTION":15.43003152,"ECCENTRICITY":0.00579189,"INCLINATION":94.0887,"RA_OF_ASC_NODE":87.6293,"ARG_OF_PERICENTER":152.9949,"MEAN_ANOMALY":207.4341,"EPHEMERIS_TYPE":0,"CLASSIFICATION_TYPE":"U","NORAD_CAT_ID":20547,"ELEMENT_SET_NO":999,"REV_AT_EPOCH":98658,"BSTAR":0.00013659834,"MEAN_MOTION_DOT":6.373e-5,"MEAN_MOTION_DDOT":0}]
